{
  "type": "FeatureCollection",
  "features": [
    {
      "type": "Feature",
      "properties": {
        "norad_id": 66814,
        "name": "STARLINK-35984",
        "group": "last-30-days",
        "lat": 28.11525297678875,
        "lon": -44.75784481087573,
        "alt_km": 411.5905776910313,
        "timestamp": "2025-12-26T09:30:52.342239+00:00",
        "meta_object_name": "STARLINK-35984",
        "meta_object_id": "2025-278Z",
        "meta_epoch": "2025-12-26T04:17:31.361280",
        "meta_mean_motion": 15.50601996,
        "meta_eccentricity": 0.0002357,
        "meta_inclination": 42.9998,
        "meta_ra_of_asc_node": 171.5011,
        "meta_arg_of_pericenter": 273.0476,
        "meta_mean_anomaly": 87.0114,
        "meta_ephemeris_type": 0,
        "meta_classification_type": "U",
        "meta_norad_cat_id": 66814,
        "meta_element_set_no": 999,
        "meta_rev_at_epoch": 394,
        "meta_bstar": 0.0013703,
        "meta_mean_motion_dot": 0.00080951,
        "meta_mean_motion_ddot": 0,
        "tle_line1": "1 66814U 25278Z   25360.17883520  .00080951  00000+0  13703-2 0  9997",
        "tle_line2": "2 66814  42.9998 171.5011 0002357 273.0476  87.0114 15.50601996  3949"
      },
      "geometry": {
        "type": "Point",
        "coordinates": [
          -44.75784481087573,
          28.11525297678875
        ]
      }
    },
    {
      "type": "Feature",
      "properties": {
        "norad_id": 66815,
        "name": "STARLINK-35985",
        "group": "last-30-days",
        "lat": 29.189450521161167,
        "lon": -46.60253176884245,
        "alt_km": 411.36953645556423,
        "timestamp": "2025-12-26T09:30:52.342251+00:00",
        "meta_object_name": "STARLINK-35985",
        "meta_object_id": "2025-278AA",
        "meta_epoch": "2025-12-26T04:00:01.998720",
        "meta_mean_motion": 15.50542705,
        "meta_eccentricity": 0.0001708,
        "meta_inclination": 43.0004,
        "meta_ra_of_asc_node": 171.5748,
        "meta_arg_of_pericenter": 273.4601,
        "meta_mean_anomaly": 16.8311,
        "meta_ephemeris_type": 0,
        "meta_classification_type": "U",
        "meta_norad_cat_id": 66815,
        "meta_element_set_no": 999,
        "meta_rev_at_epoch": 520,
        "meta_bstar": 0.0003137,
        "meta_mean_motion_dot": 0.0001808,
        "meta_mean_motion_ddot": 0,
        "tle_line1": "1 66815U 25278AA  25360.16668980  .00018080  00000+0  31370-3 0  9993",
        "tle_line2": "2 66815  43.0004 171.5748 0001708 273.4601  16.8311 15.50542705  5202"
      },
      "geometry": {
        "type": "Point",
        "coordinates": [
          -46.60253176884245,
          29.189450521161167
        ]
      }
    },
    {
      "type": "Feature",
      "properties": {
        "norad_id": 66816,
        "name": "STARLINK-36098",
        "group": "last-30-days",
        "lat": 33.157597556930234,
        "lon": -54.26489871636825,
        "alt_km": 410.6746799057355,
        "timestamp": "2025-12-26T09:30:52.342261+00:00",
        "meta_object_name": "STARLINK-36098",
        "meta_object_id": "2025-278AB",
        "meta_epoch": "2025-12-26T04:00:01.998720",
        "meta_mean_motion": 15.50546848,
        "meta_eccentricity": 0.0001506,
        "meta_inclination": 43.0003,
        "meta_ra_of_asc_node": 171.5945,
        "meta_arg_of_pericenter": 271.3488,
        "meta_mean_anomaly": 11.2713,
        "meta_ephemeris_type": 0,
        "meta_classification_type": "U",
        "meta_norad_cat_id": 66816,
        "meta_element_set_no": 999,
        "meta_rev_at_epoch": 496,
        "meta_bstar": 0.00024234,
        "meta_mean_motion_dot": 0.00013884,
        "meta_mean_motion_ddot": 0,
        "tle_line1": "1 66816U 25278AB  25360.16668980  .00013884  00000+0  24234-3 0  9992",
        "tle_line2": "2 66816  43.0003 171.5945 0001506 271.3488  11.2713 15.50546848  4966"
      },
      "geometry": {
        "type": "Point",
        "coordinates": [
          -54.26489871636825,
          33.157597556930234
        ]
      }
    },
    {
      "type": "Feature",
      "properties": {
        "norad_id": 66817,
        "name": "STARLINK-35995",
        "group": "last-30-days",
        "lat": 31.229278202600042,
        "lon": -50.35021039667815,
        "alt_km": 410.98243831002674,
        "timestamp": "2025-12-26T09:30:52.342273+00:00",
        "meta_object_name": "STARLINK-35995",
        "meta_object_id": "2025-278AC",
        "meta_epoch": "2025-12-26T04:00:01.998720",
        "meta_mean_motion": 15.50544496,
        "meta_eccentricity": 0.0001493,
        "meta_inclination": 43.0004,
        "meta_ra_of_asc_node": 171.5849,
        "meta_arg_of_pericenter": 275.3177,
        "meta_mean_anomaly": 11.139,
        "meta_ephemeris_type": 0,
        "meta_classification_type": "U",
        "meta_norad_cat_id": 66817,
        "meta_element_set_no": 999,
        "meta_rev_at_epoch": 511,
        "meta_bstar": 0.00029346,
        "meta_mean_motion_dot": 0.0001689,
        "meta_mean_motion_ddot": 0,
        "tle_line1": "1 66817U 25278AC  25360.16668980  .00016890  00000+0  29346-3 0  9992",
        "tle_line2": "2 66817  43.0004 171.5849 0001493 275.3177  11.1390 15.50544496  5110"
      },
      "geometry": {
        "type": "Point",
        "coordinates": [
          -50.35021039667815,
          31.229278202600042
        ]
      }
    },
    {
      "type": "Feature",
      "properties": {
        "norad_id": 66818,
        "name": "STARLINK-35994",
        "group": "last-30-days",
        "lat": 38.859496431221494,
        "lon": -69.5552272757287,
        "alt_km": 427.98407924474213,
        "timestamp": "2025-12-26T09:30:52.342283+00:00",
        "meta_object_name": "STARLINK-35994",
        "meta_object_id": "2025-278AD",
        "meta_epoch": "2025-12-26T04:00:01.998720",
        "meta_mean_motion": 15.4540077,
        "meta_eccentricity": 0.0001349,
        "meta_inclination": 43.0005,
        "meta_ra_of_asc_node": 171.6192,
        "meta_arg_of_pericenter": 258.8645,
        "meta_mean_anomaly": 14.8508,
        "meta_ephemeris_type": 0,
        "meta_classification_type": "U",
        "meta_norad_cat_id": 66818,
        "meta_element_set_no": 999,
        "meta_rev_at_epoch": 511,
        "meta_bstar": -0.047128,
        "meta_mean_motion_dot": -0.02051165,
        "meta_mean_motion_ddot": 0,
        "tle_line1": "1 66818U 25278AD  25360.16668980 -.02051165  00000+0 -47128-1 0  9997",
        "tle_line2": "2 66818  43.0005 171.6192 0001349 258.8645  14.8508 15.45400770  5111"
      },
      "geometry": {
        "type": "Point",
        "coordinates": [
          -69.5552272757287,
          38.859496431221494
        ]
      }
    },
    {
      "type": "Feature",
      "properties": {
        "norad_id": 66819,
        "name": "STARLINK-35989",
        "group": "last-30-days",
        "lat": 30.223201886469354,
        "lon": -48.458012953157834,
        "alt_km": 411.1500374043844,
        "timestamp": "2025-12-26T09:30:52.342293+00:00",
        "meta_object_name": "STARLINK-35989",
        "meta_object_id": "2025-278AE",
        "meta_epoch": "2025-12-26T04:00:01.998720",
        "meta_mean_motion": 15.50546075,
        "meta_eccentricity": 0.000161,
        "meta_inclination": 43.0003,
        "meta_ra_of_asc_node": 171.5797,
        "meta_arg_of_pericenter": 271.7096,
        "meta_mean_anomaly": 16.6629,
        "meta_ephemeris_type": 0,
        "meta_classification_type": "U",
        "meta_norad_cat_id": 66819,
        "meta_element_set_no": 999,
        "meta_rev_at_epoch": 511,
        "meta_bstar": 0.00022515,
        "meta_mean_motion_dot": 0.00012873,
        "meta_mean_motion_ddot": 0,
        "tle_line1": "1 66819U 25278AE  25360.16668980  .00012873  00000+0  22515-3 0  9992",
        "tle_line2": "2 66819  43.0003 171.5797 0001610 271.7096  16.6629 15.50546075  5114"
      },
      "geometry": {
        "type": "Point",
        "coordinates": [
          -48.458012953157834,
          30.223201886469354
        ]
      }
    },
    {
      "type": "Feature",
      "properties": {
        "norad_id": 66820,
        "name": "KOMPSAT-7",
        "group": "last-30-days",
        "lat": -80.68158019243735,
        "lon": 71.0858400816531,
        "alt_km": 567.3776728516732,
        "timestamp": "2025-12-26T09:30:52.342303+00:00",
        "meta_object_name": "KOMPSAT-7",
        "meta_object_id": "2025-279A",
        "meta_epoch": "2025-12-25T13:08:14.231616",
        "meta_mean_motion": 15.00813233,
        "meta_eccentricity": 0.00097586,
        "meta_inclination": 97.6449,
        "meta_ra_of_asc_node": 305.1939,
        "meta_arg_of_pericenter": 217.4466,
        "meta_mean_anomaly": 142.6079,
        "meta_ephemeris_type": 0,
        "meta_classification_type": "U",
        "meta_norad_cat_id": 66820,
        "meta_element_set_no": 999,
        "meta_rev_at_epoch": 357,
        "meta_bstar": 0.00023523549,
        "meta_mean_motion_dot": 2.931e-05,
        "meta_mean_motion_ddot": 0,
        "tle_line1": "1 66820U 25279A   25359.54738694  .00002931  00000+0  23524-3 0  9990",
        "tle_line2": "2 66820  97.6449 305.1939 0009758 217.4466 142.6079 15.00813233  3572"
      },
      "geometry": {
        "type": "Point",
        "coordinates": [
          71.0858400816531,
          -80.68158019243735
        ]
      }
    }
  ]
}